NORAD_CAT_ID,OBJECT_NAME,OBJECT_TYPE,EPOCH,MEAN_MOTION,ECCENTRICITY,INCLINATION,RA_OF_ASC_NODE,ARG_OF_PERICENTER,MEAN_ANOMALY,BSTAR,MEAN_MOTION_DOT,MEAN_MOTION_DDOT,TLE_LINE0,TLE_LINE1,TLE_LINE2,SEMIMAJOR_AXIS,PERIOD,APOGEE,PERIGEE,DECAYED
53792.0,STARLINK-4739,PAYLOAD,2024-06-29 16:29:22,15.0885107,0.0001327,53.2157,168.7905,85.5231,274.5912,0.00014993,2.1e-05,0.0,0 STARLINK-4739,1 53792U 22111V   24181.68706878  .00002100  00000-0  14993-3 0  9991,2 53792  53.2157 168.7905 0001327  85.5231 274.5912 15.08851070100381,6917.847,95.437,540.63,538.794,0.0
53792.0,STARLINK-4739,PAYLOAD,2024-06-30 05:12:28,15.08834608,0.0001203,53.2139,166.4131,89.2742,270.8388,-3.9955e-05,-9.24e-06,0.0,0 STARLINK-4739,1 53792U 22111V   24182.21699830 -.00000924  00000-0 -39955-4 0  9990,2 53792  53.2139 166.4131 0001203  89.2742 270.8388 15.08834608 99660,6917.897,95.438,540.594,538.93,0.0
53792.0,STARLINK-4739,PAYLOAD,2024-06-30 08:23:14,15.08838529,0.0001282,53.2139,165.8171,92.8612,267.2527,-7.789e-06,-4.12e-06,0.0,0 STARLINK-4739,1 53792U 22111V   24182.34947646 -.00000412  00000-0 -77890-5 0  9998,2 53792  53.2139 165.8171 0001282  92.8612 267.2527 15.08838529100484,6917.885,95.438,540.637,538.863,0.0
53792.0,STARLINK-4739,PAYLOAD,2024-06-30 16:20:10,15.08842401,0.0001312,53.2141,164.332,87.2638,272.8505,6.1446e-05,6.9e-06,0.0,0 STARLINK-4739,1 53792U 22111V   24182.68067526  .00000690  00000-0  61446-4 0  9990,2 53792  53.2141 164.3320 0001312  87.2638 272.8505 15.08842401 99734,6917.873,95.437,540.646,538.83,0.0
53792.0,STARLINK-4739,PAYLOAD,2024-07-01 08:14:01,15.08843393,0.0001315,53.2142,161.3579,90.0912,270.0231,9.4958e-05,1.224e-05,0.0,0 STARLINK-4739,1 53792U 22111V   24183.34307562  .00001224  00000-0  94958-4 0  9999,2 53792  53.2142 161.3579 0001315  90.0912 270.0231 15.08843393100637,6917.87,95.437,540.645,538.825,0.0
53792.0,STARLINK-4739,PAYLOAD,2024-07-01 16:10:57,15.08848233,0.0001352,53.2144,159.8718,86.3494,273.7653,0.00016676,2.368e-05,0.0,0 STARLINK-4739,1 53792U 22111V   24183.67427322  .00002368  00000-0  16676-3 0  9992,2 53792  53.2144 159.8718 0001352  86.3494 273.7653 15.08848233100681,6917.855,95.437,540.656,538.785,0.0
53792.0,STARLINK-4739,PAYLOAD,2024-07-02 04:54:02,15.08837487,0.0001464,53.2153,157.4929,95.1567,264.9593,0.00010242,1.342e-05,0.0,0 STARLINK-4739,1 53792U 22111V   24184.20420007  .00001342  00000-0  10242-3 0  9999,2 53792  53.2153 157.4929 0001464  95.1567 264.9593 15.08837487 99964,6917.888,95.438,540.766,538.74,0.0
53792.0,STARLINK-4739,PAYLOAD,2024-07-02 22:23:17,15.08840166,0.0001391,53.2156,154.2223,97.3518,262.7632,0.00012985,1.779e-05,0.0,0 STARLINK-4739,1 53792U 22111V   24184.93283928  .00001779  00000-0  12985-3 0  9998,2 53792  53.2156 154.2223 0001391  97.3518 262.7632 15.08840166100879,6917.88,95.438,540.707,538.783,0.0
53792.0,STARLINK-4739,PAYLOAD,2024-07-03 04:44:50,15.08830854,0.0001548,53.2154,153.0321,96.3233,263.7935,-7.2199e-05,-1.437e-05,0.0,0 STARLINK-4739,1 53792U 22111V   24185.19780421 -.00001437  00000-0 -72199-4 0  9994,2 53792  53.2154 153.0321 0001548  96.3233 263.7935 15.08830854100117,6917.908,95.438,540.844,538.702,0.0
53792.0,STARLINK-4739,PAYLOAD,2024-07-03 14:17:08,15.08843504,0.0001475,53.2162,151.2473,102.7519,257.3638,0.00011668,1.57e-05,0.0,0 STARLINK-4739,1 53792U 22111V   24185.59523807  .00001570  00000-0  11668-3 0  9990,2 53792  53.2162 151.2473 0001475 102.7519 257.3638 15.08843504100173,6917.87,95.437,540.755,538.714,0.0
53792.0,STARLINK-4739,PAYLOAD,2024-07-03 22:14:04,15.08836009,0.0001429,53.2154,149.7641,109.6063,250.5084,7.8912e-05,9.68e-06,0.0,0 STARLINK-4739,1 53792U 22111V   24185.92644313  .00000968  00000-0  78912-4 0  9999,2 53792  53.2154 149.7641 0001429 109.6063 250.5084 15.08836009101029,6917.893,95.438,540.746,538.769,0.0
53792.0,STARLINK-4739,PAYLOAD,2024-07-04 04:35:37,15.0883942,0.0001421,53.2156,148.5751,105.4179,254.697,8.9772e-05,1.141e-05,0.0,0 STARLINK-4739,1 53792U 22111V   24186.19140212  .00001141  00000-0  89772-4 0  9998,2 53792  53.2156 148.5751 0001421 105.4179 254.6970 15.08839420100268,6917.882,95.438,540.73,538.764,0.0
53792.0,STARLINK-4739,PAYLOAD,2024-07-04 14:07:55,15.08847014,0.0001474,53.2164,146.791,106.8961,253.2193,0.00014278,1.986e-05,0.0,0 STARLINK-4739,1 53792U 22111V   24186.58883725  .00001986  00000-0  14278-3 0  9999,2 53792  53.2164 146.7910 0001474 106.8961 253.2193 15.08847014101122,6917.859,95.437,540.744,538.704,0.0
53792.0,STARLINK-4739,PAYLOAD,2024-07-04 22:04:52,15.08829082,0.0001456,53.2162,145.3006,95.6294,264.4864,7.2727e-05,8.69e-06,0.0,0 STARLINK-4739,1 53792U 22111V   24186.92004837  .00000869  00000-0  72727-4 0  9999,2 53792  53.2162 145.3006 0001456  95.6294 264.4864 15.08829082101174,6917.914,95.438,540.786,538.772,0.0
53792.0,STARLINK-4739,PAYLOAD,2024-07-05 07:37:10,15.08845364,0.0001445,53.2164,143.5171,98.4892,261.6264,0.00022166,3.242e-05,0.0,0 STARLINK-4739,1 53792U 22111V   24187.31748089  .00003242  00000-0  22166-3 0  9996,2 53792  53.2164 143.5171 0001445  98.4892 261.6264 15.08845364100434,6917.864,95.437,540.729,538.729,0.0
53792.0,STARLINK-4739,PAYLOAD,2024-07-05 13:58:42,15.08851837,0.0001329,53.2157,142.3275,91.0698,269.0446,0.00048276,7.406e-05,0.0,0 STARLINK-4739,1 53792U 22111V   24187.58243894  .00007406  00000-0  48276-3 0  9995,2 53792  53.2157 142.3275 0001329  91.0698 269.0446 15.08851837101271,6917.844,95.437,540.629,538.79,0.0
53792.0,STARLINK-4739,PAYLOAD,2024-07-06 02:41:48,15.08834678,0.000142,53.2152,139.9475,87.4752,272.6403,0.00028855,4.307e-05,0.0,0 STARLINK-4739,1 53792U 22111V   24188.11236521  .00004307  00000-0  28855-3 0  9992,2 53792  53.2152 139.9475 0001420  87.4752 272.6403 15.08834678100559,6917.897,95.438,540.744,538.779,0.0
53792.0,STARLINK-4739,PAYLOAD,2024-07-06 13:49:30,15.08843282,0.0001385,53.2154,137.866,84.9564,275.1586,0.00051824,7.97e-05,0.0,0 STARLINK-4739,1 53792U 22111V   24188.57604499  .00007970  00000-0  51824-3 0  9996,2 53792  53.2154 137.8660 0001385  84.9564 275.1586 15.08843282101425,6917.87,95.437,540.693,538.777,0.0
53792.0,STARLINK-4739,PAYLOAD,2024-07-06 20:11:03,15.08830664,0.0001246,53.2152,136.6775,96.2411,263.8723,0.00018252,2.617e-05,0.0,0 STARLINK-4739,1 53792U 22111V   24188.84100703  .00002617  00000-0  18252-3 0  9996,2 53792  53.2152 136.6775 0001246  96.2411 263.8723 15.08830664101461,6917.909,95.438,540.636,538.912,0.0
53792.0,STARLINK-4739,PAYLOAD,2024-07-07 04:08:00,15.08763372,0.000175,53.2157,135.1908,97.1189,263.0002,-0.0020665,-0.00032958,0.0,0 STARLINK-4739,1 53792U 22111V   24189.17222655 -.00032958  00000-0 -20665-2 0  9997,2 53792  53.2157 135.1908 0001750  97.1189 263.0002 15.08763372100710,6918.115,95.442,541.19,538.769,0.0
53792.0,STARLINK-4739,PAYLOAD,2024-07-07 05:43:23,15.08761692,0.0001768,53.2152,134.8929,98.8358,261.2834,-0.0019397,-0.0003096,0.0,0 STARLINK-4739,1 53792U 22111V   24189.23846980 -.00030960  00000-0 -19397-2 0  9998,2 53792  53.2152 134.8929 0001768  98.8358 261.2834 15.08761692101525,6918.12,95.443,541.208,538.762,0.0
53792.0,STARLINK-4739,PAYLOAD,2024-07-07 20:01:51,15.08825209,0.0001433,53.2154,132.2164,94.419,265.6966,0.00079149,0.00012326,0.0,0 STARLINK-4739,1 53792U 22111V   24189.83462946  .00012326  00000-0  79149-3 0  9996,2 53792  53.2154 132.2164 0001433  94.4190 265.6966 15.08825209100815,6917.926,95.438,540.782,538.799,0.0
53792.0,STARLINK-4739,PAYLOAD,2024-07-08 05:34:10,15.08859932,0.0001538,53.2149,130.431,101.0946,259.0219,0.0018069,0.00028602,0.0,0 STARLINK-4739,1 53792U 22111V   24190.23206523  .00028602  00000-0  18069-2 0  9996,2 53792  53.2149 130.4310 0001538 101.0946 259.0219 15.08859932100876,6917.819,95.436,540.748,538.621,0.0
53792.0,STARLINK-4739,PAYLOAD,2024-07-08 13:31:05,15.08880844,0.000154,53.2146,128.9425,106.4066,253.7096,0.0016015,0.0002532,0.0,0 STARLINK-4739,1 53792U 22111V   24190.56325701  .00025320  00000-0  16015-2 0  9995,2 53792  53.2146 128.9425 0001540 106.4066 253.7096 15.08880844101722,6917.756,95.435,540.686,538.555,0.0
53792.0,STARLINK-4739,PAYLOAD,2024-07-09 02:14:10,15.08866588,0.0001433,53.2156,126.5664,93.3435,266.7721,0.0003382,5.102e-05,0.0,0 STARLINK-4739,1 53792U 22111V   24191.09317175  .00005102  00000-0  33820-3 0  9990,2 53792  53.2156 126.5664 0001433  93.3435 266.7721 15.08866588101006,6917.799,95.436,540.655,538.673,0.0
53792.0,STARLINK-4739,PAYLOAD,2024-07-09 13:21:51,15.08869386,0.0001569,53.2155,124.4835,94.5267,265.5904,0.00066605,0.00010337,0.0,0 STARLINK-4739,1 53792U 22111V   24191.55684539  .00010337  00000-0  66605-3 0  9995,2 53792  53.2155 124.4835 0001569  94.5267 265.5904 15.08869386101872,6917.791,95.436,540.741,538.57,0.0
53792.0,STARLINK-4739,PAYLOAD,2024-07-09 22:54:10,15.08840424,0.0001284,53.2154,122.7002,101.8588,258.2548,-0.0001533,-2.727e-05,0.0,0 STARLINK-4739,1 53792U 22111V   24191.95428760 -.00002727  00000-0 -15330-3 0  9996,2 53792  53.2154 122.7002 0001284 101.8588 258.2548 15.08840424101932,6917.879,95.438,540.632,538.856,0.0
53792.0,STARLINK-4739,PAYLOAD,2024-07-10 02:04:56,15.08838347,0.0001263,53.2157,122.1059,90.7932,269.3205,-2.7993e-05,-7.33e-06,0.0,0 STARLINK-4739,1 53792U 22111V   24192.08676896 -.00000733  00000-0 -27993-4 0  9990,2 53792  53.2157 122.1059 0001263  90.7932 269.3205 15.08838347101155,6917.885,95.438,540.624,538.877,0.0
53792.0,STARLINK-4739,PAYLOAD,2024-07-10 22:44:57,15.08843665,0.0001224,53.2162,118.2401,90.1438,269.9694,0.00064327,9.966e-05,0.0,0 STARLINK-4739,1 53792U 22111V   24192.94789210  .00009966  00000-0  64327-3 0  9996,2 53792  53.2162 118.2401 0001224  90.1438 269.9694 15.08843665102080,6917.869,95.437,540.581,538.887,0.0
53792.0,STARLINK-4739,PAYLOAD,2024-07-11 08:17:16,15.0885642,0.0001132,53.2162,116.456,89.3697,270.7425,0.00080294,0.0001252,0.0,0 STARLINK-4739,1 53792U 22111V   24193.34532852  .00012520  00000-0  80294-3 0  9990,2 53792  53.2162 116.4560 0001132  89.3697 270.7425 15.08856420102143,6917.83,95.437,540.478,538.912,0.0
